{"type": "FeatureCollection", "features": [{"type": "Feature", "properties": {"shapeID": "70788906B89532291078161", "shapeName": "La\u00e2youne-Sakia El Hamra"}, "geometry": {"type": "Polygon", "coordinates": [[[-11.71157, 28.12348], [-11.69904, 28.05877], [-11.58505, 27.86588], [-11.55143, 27.83624], [-11.48541, 27.80705], [-11.3609, 27.7961], [-11.22821, 27.75844], [-11.18975, 27.73838], [-10.90154, 27.75753], [-10.87063, 27.77394], [-10.78635, 27.78641], [-10.71872, 27.76785], [-10.41642, 27.80476], [-10.24836, 27.8095], [-10.21233, 27.79906], [-10.13706, 27.71403], [-10.11154, 27.70055], [-10.09202, 27.71048], [-10.05832, 27.70977], [-10.01738, 27.6543], [-9.98532, 27.63821], [-9.96592, 27.63472], [-9.91579, 27.64822], [-9.89931, 27.67348], [-9.86171, 27.66189], [-9.81622, 27.61294], [-9.81416, 27.59117], [-9.7982, 27.56897], [-9.76318, 27.5365], [-9.54414, 27.40229], [-9.40681, 27.42374], [-9.28871, 27.47211], [-9.17212, 27.40948], [-9.06103, 27.3139], [-8.97199, 27.27829], [-8.87456, 27.18319], [-8.75422, 27.14715], [-8.6676, 27.13613], [-8.66694, 26.00028], [-12.00056, 26.0], [-12.0, 24.38543], [-12.11303, 24.4159], [-12.26426, 24.43854], [-12.53947, 24.38359], [-12.61125, 24.38325], [-12.88662, 24.48162], [-13.12025, 24.52723], [-13.295, 24.51271], [-13.51335, 24.43356], [-13.68897, 24.39051], [-13.81152, 24.42824], [-14.07589, 24.48397], [-14.30482, 24.47311], [-14.50611, 24.41613], [-14.56317, 24.43267], [-14.60934, 24.475], [-14.6217, 24.49873], [-14.66376, 24.52589], [-14.78525, 24.55486], [-14.86714, 24.62211], [-14.88649, 24.64254], [-14.90488, 24.6832], [-14.88247, 24.70313], [-14.8824, 24.76979], [-14.82893, 24.91002], [-14.83326, 24.944], [-14.81873, 25.04958], [-14.82719, 25.07275], [-14.84056, 25.083], [-14.83686, 25.10333], [-14.84574, 25.12618], [-14.83679, 25.1626], [-14.84508, 25.20585], [-14.82478, 25.25596], [-14.82743, 25.29668], [-14.7923, 25.37452], [-14.78672, 25.41944], [-14.7316, 25.4869], [-14.69701, 25.54519], [-14.68563, 25.58034], [-14.68631, 25.61779], [-14.66459, 25.66539], [-14.6376, 25.76854], [-14.61648, 25.78368], [-14.5668, 25.84863], [-14.49895, 25.98635], [-14.48501, 26.09258], [-14.5007, 26.12636], [-14.47489, 26.17952], [-14.40445, 26.26185], [-14.31733, 26.28207], [-14.24939, 26.33333], [-14.2093, 26.37774], [-14.18212, 26.42493], [-14.07199, 26.43648], [-13.97613, 26.47182], [-13.91544, 26.51817], [-13.71986, 26.61786], [-13.62057, 26.68614], [-13.57375, 26.73198], [-13.53103, 26.80075], [-13.43419, 27.04592], [-13.43126, 27.05727], [-13.43845, 27.0597], [-13.43059, 27.05924], [-13.41824, 27.08173], [-13.42345, 27.09586], [-13.43313, 27.08902], [-13.43308, 27.09624], [-13.4243, 27.09692], [-13.41864, 27.11087], [-13.40835, 27.16427], [-13.30444, 27.32403], [-13.22816, 27.51061], [-13.1965, 27.62449], [-13.16224, 27.6955], [-13.05082, 27.75104], [-13.02748, 27.79494], [-13.00858, 27.80805], [-12.98052, 27.89406], [-12.96039, 27.92067], [-12.93845, 27.9297], [-12.93096, 27.9398], [-12.9356, 27.94524], [-12.91771, 27.95407], [-12.55909, 27.99639], [-12.08254, 28.08678], [-11.93733, 28.1561], [-11.78647, 28.21119], [-11.74285, 28.14766], [-11.71157, 28.12348]]]}}, {"type": "Feature", "properties": {"shapeID": "70788906B66040098455254", "shapeName": "Tangier-Tetouan-Al Hoceima"}, "geometry": {"type": "Polygon", "coordinates": [[[-6.16933, 35.19337], [-6.1469, 35.19985], [-6.15629, 35.20361], [-6.11339, 35.29814], [-6.08154, 35.39615], [-6.01873, 35.49772], [-5.92941, 35.78855], [-5.90756, 35.80112], [-5.84798, 35.80112], [-5.79319, 35.79128], [-5.80777, 35.78736], [-5.78172, 35.77685], [-5.75177, 35.79783], [-5.75022, 35.81788], [-5.71885, 35.83095], [-5.6863, 35.83836], [-5.6551, 35.82774], [-5.62783, 35.83545], [-5.58895, 35.83292], [-5.54229, 35.85278], [-5.54764, 35.86055], [-5.53925, 35.87453], [-5.54637, 35.86117], [-5.54098, 35.85577], [-5.5202, 35.87408], [-5.52612, 35.8804], [-5.52227, 35.88419], [-5.51818, 35.87694], [-5.51911, 35.88201], [-5.50816, 35.88391], [-5.50378, 35.89443], [-5.49422, 35.90034], [-5.50024, 35.88747], [-5.48312, 35.90837], [-5.45733, 35.91459], [-5.44224, 35.90411], [-5.41601, 35.90979], [-5.40141, 35.92243], [-5.39441, 35.90954], [-5.37985, 35.91066], [-5.37169, 35.88177], [-5.34335, 35.87088], [-5.35364, 35.84175], [-5.33801, 35.71924], [-5.31886, 35.683], [-5.27329, 35.68646], [-5.28428, 35.66598], [-5.24275, 35.55267], [-5.22593, 35.55033], [-5.21348, 35.53802], [-5.20016, 35.5414], [-5.17316, 35.53138], [-5.15316, 35.50458], [-5.10648, 35.47721], [-5.06051, 35.40658], [-5.01628, 35.40341], [-4.92699, 35.3182], [-4.8679, 35.30186], [-4.82961, 35.26635], [-4.78106, 35.23734], [-4.67733, 35.20465], [-4.64872, 35.21396], [-4.61505, 35.18949], [-4.4921, 35.17604], [-4.43007, 35.15469], [-4.40354, 35.15808], [-4.35556, 35.1473], [-4.30012, 35.16733], [-4.28752, 35.18131], [-4.24897, 35.18839], [-4.21886, 35.18383], [-4.18979, 35.19827], [-4.11608, 35.20426], [-4.04533, 35.23661], [-3.98112, 35.23599], [-3.93053, 35.26189], [-3.91438, 35.25424], [-3.92624, 35.24281], [-3.90688, 35.21379], [-3.85533, 35.19793], [-3.82389, 35.19936], [-3.80269, 35.1745], [-3.81257, 35.15988], [-3.80607, 35.15109], [-3.81495, 35.09827], [-3.80943, 35.05859], [-3.8175, 35.02438], [-3.80617, 34.9849], [-3.82591, 34.93428], [-3.81948, 34.92961], [-3.82924, 34.91919], [-3.82012, 34.88753], [-3.82946, 34.86818], [-3.91948, 34.85165], [-3.93586, 34.83922], [-4.03444, 34.8261], [-4.09938, 34.76415], [-4.1434, 34.74404], [-4.1548, 34.75791], [-4.17059, 34.75138], [-4.21177, 34.76723], [-4.24805, 34.80668], [-4.30443, 34.76181], [-4.29364, 34.7515], [-4.31503, 34.72272], [-4.38082, 34.70567], [-4.41615, 34.7108], [-4.43409, 34.66802], [-4.50568, 34.70114], [-4.5408, 34.70172], [-4.57299, 34.6827], [-4.58855, 34.71512], [-4.62782, 34.72373], [-4.72386, 34.71904], [-4.77842, 34.75027], [-4.78746, 34.77279], [-4.79057, 34.84275], [-4.86305, 34.8252], [-4.88494, 34.8333], [-4.9778, 34.79028], [-5.0174, 34.79155], [-5.02081, 34.8008], [-5.08004, 34.78241], [-5.08385, 34.77462], [-5.09019, 34.77982], [-5.14494, 34.76529], [-5.18109, 34.73905], [-5.18076, 34.69257], [-5.18867, 34.66967], [-5.18064, 34.61428], [-5.19621, 34.59734], [-5.18145, 34.59035], [-5.19771, 34.55843], [-5.25861, 34.55604], [-5.26711, 34.54215], [-5.25619, 34.53251], [-5.28082, 34.51478], [-5.31515, 34.5159], [-5.38939, 34.53714], [-5.38699, 34.52268], [-5.39485, 34.52191], [-5.42773, 34.53673], [-5.43527, 34.55828], [-5.41274, 34.58665], [-5.42204, 34.60828], [-5.44482, 34.62362], [-5.48926, 34.63127], [-5.50574, 34.64458], [-5.5284, 34.63861], [-5.54084, 34.66812], [-5.55209, 34.66788], [-5.55183, 34.69364], [-5.57582, 34.69329], [-5.59009, 34.7216], [-5.60348, 34.71659], [-5.60475, 34.72264], [-5.63429, 34.72604], [-5.62929, 34.73626], [-5.64423, 34.74006], [-5.66663, 34.73435], [-5.6825, 34.71269], [-5.71458, 34.70475], [-5.71058, 34.71864], [-5.71934, 34.72706], [-5.77623, 34.73484], [-5.79486, 34.75075], [-5.78155, 34.77786], [-5.791, 34.85067], [-5.77447, 34.87411], [-5.79117, 34.88754], [-5.78113, 34.92106], [-5.78737, 34.93147], [-5.83322, 34.94364], [-5.87831, 34.93398], [-5.91945, 34.94096], [-6.007, 34.99184], [-6.02638, 34.97648], [-6.05377, 34.97648], [-6.06684, 34.99055], [-6.05799, 34.99816], [-6.10021, 35.01552], [-6.12677, 35.01046], [-6.13852, 34.99703], [-6.18586, 34.98888], [-6.2434, 35.00139], [-6.16933, 35.19337]]]}}, {"type": "Feature", "properties": {"shapeID": "70788906B40056535803135", "shapeName": "Oriental"}, "geometry": {"type": "Polygon", "coordinates": [[[-3.82924, 34.91919], [-3.81948, 34.92961], [-3.82591, 34.93428], [-3.80617, 34.9849], [-3.8175, 35.02438], [-3.80943, 35.05859], [-3.81495, 35.09827], [-3.80607, 35.15109], [-3.81257, 35.15988], [-3.80269, 35.1745], [-3.82389, 35.19936], [-3.77099, 35.22257], [-3.75024, 35.27409], [-3.7096, 35.28786], [-3.67826, 35.28574], [-3.66067, 35.26617], [-3.57143, 35.2208], [-3.5378, 35.21821], [-3.48852, 35.19941], [-3.45068, 35.20611], [-3.42587, 35.19245], [-3.33506, 35.18554], [-3.29851, 35.20632], [-3.18994, 35.22887], [-3.15957, 35.2513], [-3.13479, 35.28455], [-3.11017, 35.2721], [-3.08355, 35.28106], [-3.02724, 35.35148], [-3.00924, 35.38367], [-3.01094, 35.39531], [-3.00295, 35.39731], [-3.01026, 35.40155], [-2.99523, 35.41732], [-2.99454, 35.43557], [-2.97279, 35.43951], [-2.95615, 35.43617], [-2.95004, 35.4264], [-2.96448, 35.41201], [-2.95554, 35.4043], [-2.97141, 35.36293], [-2.95635, 35.34674], [-2.96155, 35.33157], [-2.9521, 35.32013], [-2.96787, 35.3007], [-2.96834, 35.28197], [-2.95054, 35.26563], [-2.92664, 35.27373], [-2.92307, 35.26795], [-2.92066, 35.27871], [-2.91409, 35.27684], [-2.91794, 35.2844], [-2.91364, 35.27688], [-2.92254, 35.26402], [-2.85797, 35.2115], [-2.85802, 35.21008], [-2.86489, 35.20069], [-2.86114, 35.20603], [-2.87303, 35.20799], [-2.92158, 35.2581], [-2.9294, 35.25097], [-2.9241, 35.22508], [-2.89899, 35.21311], [-2.92538, 35.19801], [-2.92446, 35.18485], [-2.90216, 35.14853], [-2.88116, 35.13164], [-2.81092, 35.10233], [-2.755, 35.09823], [-2.74617, 35.10954], [-2.7887, 35.15165], [-2.86205, 35.1992], [-2.8545, 35.21083], [-2.84261, 35.19268], [-2.83988, 35.19737], [-2.76389, 35.13432], [-2.69, 35.10136], [-2.62541, 35.08657], [-2.56462, 35.08126], [-2.52032, 35.08932], [-2.48086, 35.10459], [-2.42371, 35.14832], [-2.38342, 35.13111], [-2.29333, 35.11721], [-2.29931, 35.115], [-2.29809, 35.1093], [-2.29538, 35.11623], [-2.26596, 35.09919], [-2.21176, 35.08526], [-2.21083, 35.0585], [-2.21837, 35.04799], [-2.18399, 35.03123], [-2.18787, 35.02417], [-2.16571, 35.0054], [-2.12745, 34.99616], [-2.10438, 34.96672], [-2.04587, 34.92683], [-1.97339, 34.93578], [-1.97272, 34.87879], [-1.89352, 34.84161], [-1.88858, 34.80623], [-1.85922, 34.80226], [-1.73927, 34.74367], [-1.77122, 34.72461], [-1.77522, 34.69896], [-1.85383, 34.61623], [-1.81707, 34.60461], [-1.78998, 34.57116], [-1.79012, 34.5609], [-1.75413, 34.52687], [-1.76189, 34.52156], [-1.68678, 34.49033], [-1.78197, 34.3942], [-1.70533, 34.30687], [-1.71183, 34.26157], [-1.70672, 34.23023], [-1.64789, 34.10538], [-1.69875, 33.86969], [-1.67132, 33.7731], [-1.73015, 33.73418], [-1.73815, 33.70063], [-1.70194, 33.67563], [-1.65275, 33.68061], [-1.63134, 33.63142], [-1.59471, 33.60549], [-1.60124, 33.57586], [-1.59302, 33.56486], [-1.60336, 33.5564], [-1.58816, 33.52906], [-1.60618, 33.49822], [-1.62177, 33.48771], [-1.62127, 33.44818], [-1.62793, 33.43179], [-1.64602, 33.42301], [-1.66355, 33.37812], [-1.65854, 33.30144], [-1.67027, 33.28408], [-1.62893, 33.22352], [-1.60022, 33.20484], [-1.57334, 33.1458], [-1.5346, 33.10753], [-1.48781, 33.0861], [-1.47132, 33.06949], [-1.46176, 33.04222], [-1.47673, 33.0217], [-1.47229, 33.00366], [-1.48593, 32.97535], [-1.54378, 32.95776], [-1.38226, 32.73971], [-1.27112, 32.69594], [-1.00026, 32.51959], [-1.00066, 32.50586], [-1.01626, 32.50479], [-1.06814, 32.45021], [-1.1224, 32.41475], [-1.15195, 32.41829], [-1.19986, 32.40397], [-1.22387, 32.34508], [-1.25058, 32.32737], [-1.23508, 32.30989], [-1.24816, 32.25069], [-1.24112, 32.20571], [-1.29838, 32.16501], [-1.28775, 32.15854], [-1.21719, 32.17583], [-1.19191, 32.16878], [-1.15288, 32.12813], [-1.15236, 32.11107], [-1.18291, 32.10337], [-1.2038, 32.08456], [-1.22969, 32.07637], [-1.25559, 32.07666], [-1.27261, 32.0868], [-1.40995, 32.08731], [-1.50478, 32.10387], [-1.58031, 32.09224], [-1.64061, 32.11007], [-1.74886, 32.12108], [-1.82996, 32.14637], [-1.86838, 32.14408], [-1.9034, 32.16436], [-1.92075, 32.16236], [-1.92678, 32.15105], [-1.96858, 32.15732], [-2.01492, 32.18218], [-2.15023, 32.1442], [-2.19033, 32.14311], [-2.27761, 32.16861], [-2.2871, 32.1527], [-2.29993, 32.1513], [-2.31432, 32.15832], [-2.40631, 32.15784], [-2.43049, 32.14971], [-2.436, 32.15961], [-2.46375, 32.15978], [-2.54669, 32.14523], [-2.60003, 32.11291], [-2.87343, 32.11136], [-2.92092, 32.07089], [-2.93056, 32.02839], [-2.8852, 31.96612], [-2.88365, 31.93486], [-2.84232, 31.88362], [-2.83707, 31.85643], [-2.84415, 31.83207], [-2.82488, 31.81954], [-2.8207, 31.79364], [-3.25177, 31.71362], [-3.25606, 31.72818], [-3.15642, 31.79673], [-3.11273, 31.84014], [-3.18217, 31.83121], [-3.18449, 31.81453], [-3.19333, 31.81254], [-3.24448, 31.90588], [-3.26996, 31.97129], [-3.26207, 32.09237], [-3.19299, 32.17684], [-3.2679, 32.1473], [-3.33347, 32.10606], [-3.37695, 32.10942], [-3.51086, 32.14723], [-3.54222, 32.14263], [-3.61543, 32.10945], [-3.64679, 32.13662], [-3.58301, 32.19833], [-3.60069, 32.20509], [-3.67358, 32.19689], [-3.75382, 32.20219], [-3.74676, 32.2432], [-3.75373, 32.26113], [-3.81341, 32.25665], [-3.81043, 32.31591], [-3.821, 32.34537], [-3.85485, 32.40252], [-3.91602, 32.45019], [-3.93261, 32.47903], [-3.93953, 32.50745], [-3.92072, 32.53419], [-4.00295, 32.57946], [-4.01816, 32.60844], [-4.01593, 32.64076], [-3.83034, 32.86649], [-3.72741, 32.94771], [-3.68275, 33.02694], [-3.60351, 33.09453], [-3.57562, 33.10844], [-3.43584, 33.05657], [-3.34091, 33.05967], [-3.02867, 33.1138], [-2.9415, 33.15244], [-2.90695, 33.17701], [-2.899, 33.19964], [-2.93543, 33.2557], [-2.9992, 33.31764], [-3.25728, 33.51666], [-3.22793, 33.53466], [-3.22693, 33.55365], [-3.21367, 33.56522], [-3.19046, 33.57036], [-3.12044, 33.63345], [-3.12339, 33.66017], [-3.03238, 33.73147], [-3.04508, 33.76544], [-3.19067, 33.76017], [-3.30198, 33.7778], [-3.33089, 33.78691], [-3.37947, 33.8323], [-3.46644, 33.87751], [-3.49325, 33.9058], [-3.51639, 33.90957], [-3.53228, 33.89474], [-3.5424, 33.86796], [-3.65081, 33.74079], [-3.69316, 33.72797], [-3.73661, 33.67767], [-3.80284, 33.65678], [-3.85733, 33.59336], [-3.79442, 33.55748], [-3.83768, 33.51149], [-3.84333, 33.50942], [-3.84728, 33.52098], [-3.84757, 33.54231], [-3.87445, 33.57071], [-3.88887, 33.57087], [-3.89914, 33.55021], [-3.93022, 33.54575], [-3.94673, 33.51464], [-3.96112, 33.51323], [-4.01008, 33.52387], [-4.03089, 33.51689], [-4.10959, 33.5614], [-4.08543, 33.63905], [-4.10817, 33.63857], [-4.12313, 33.66379], [-4.08778, 33.66361], [-4.08014, 33.675], [-4.1034, 33.68239], [-3.95936, 33.73448], [-3.96606, 33.78065], [-3.97585, 33.78208], [-3.9277, 33.83168], [-3.9059, 33.87469], [-3.90178, 33.89244], [-3.91139, 33.91694], [-3.8924, 33.97294], [-3.82487, 34.00778], [-3.85294, 34.02955], [-3.83766, 34.0725], [-3.83036, 34.11763], [-3.83818, 34.12721], [-3.81552, 34.20989], [-3.89566, 34.22518], [-3.878, 34.23139], [-3.8889, 34.24111], [-3.88315, 34.25005], [-3.88871, 34.25959], [-3.90838, 34.26027], [-3.91718, 34.30133], [-3.86249, 34.307], [-3.83416, 34.33805], [-3.84371, 34.34312], [-3.84024, 34.36859], [-3.85955, 34.37114], [-3.83843, 34.39395], [-3.84591, 34.40459], [-3.83449, 34.41307], [-3.85577, 34.41137], [-3.84118, 34.4404], [-3.85088, 34.44606], [-3.84352, 34.45604], [-3.79561, 34.47515], [-3.74578, 34.54669], [-3.76917, 34.57496], [-3.75818, 34.59068], [-3.77354, 34.61993], [-3.74303, 34.62014], [-3.72346, 34.63999], [-3.69313, 34.62449], [-3.64096, 34.63323], [-3.64243, 34.65853], [-3.63434, 34.67379], [-3.59144, 34.70134], [-3.61975, 34.74102], [-3.59295, 34.78905], [-3.593, 34.83035], [-3.60463, 34.84369], [-3.75221, 34.84299], [-3.76358, 34.86181], [-3.75977, 34.88137], [-3.82012, 34.88753], [-3.82924, 34.91919]]]}}, {"type": "Feature", "properties": {"shapeID": "70788906B26242154300952", "shapeName": "Dr\u00e2a-Tafilalet"}, "geometry": {"type": "Polygon", "coordinates": [[[-4.00295, 32.57946], [-3.92072, 32.53419], [-3.93953, 32.50745], [-3.93261, 32.47903], [-3.91602, 32.45019], [-3.85485, 32.40252], [-3.821, 32.34537], [-3.81043, 32.31591], [-3.81341, 32.25665], [-3.75373, 32.26113], [-3.74676, 32.2432], [-3.75382, 32.20219], [-3.67358, 32.19689], [-3.60069, 32.20509], [-3.58301, 32.19833], [-3.64679, 32.13662], [-3.61543, 32.10945], [-3.54222, 32.14263], [-3.51086, 32.14723], [-3.37695, 32.10942], [-3.33347, 32.10606], [-3.2679, 32.1473], [-3.19299, 32.17684], [-3.26207, 32.09237], [-3.26996, 31.97129], [-3.24448, 31.90588], [-3.19333, 31.81254], [-3.18449, 31.81453], [-3.18217, 31.83121], [-3.11273, 31.84014], [-3.15642, 31.79673], [-3.25606, 31.72818], [-3.25177, 31.71362], [-3.66467, 31.63354], [-3.66484, 31.40146], [-3.647, 31.39392], [-3.6609, 31.37796], [-3.67278, 31.38513], [-3.67941, 31.3707], [-3.71161, 31.36201], [-3.72257, 31.34212], [-3.73552, 31.34365], [-3.74931, 31.36099], [-3.75413, 31.33994], [-3.76463, 31.33404], [-3.76265, 31.31062], [-3.78555, 31.29277], [-3.78208, 31.28651], [-3.77466, 31.29168], [-3.76958, 31.27814], [-3.75445, 31.27913], [-3.75879, 31.26343], [-3.7907, 31.23622], [-3.78268, 31.22161], [-3.7723, 31.223], [-3.76671, 31.1844], [-3.75931, 31.18], [-3.7768, 31.14769], [-3.77736, 31.10404], [-3.77243, 31.11983], [-3.76026, 31.12572], [-3.73051, 31.11712], [-3.7237, 31.13526], [-3.73391, 31.14609], [-3.71054, 31.15438], [-3.70801, 31.13676], [-3.70545, 31.13684], [-3.70477, 31.15195], [-3.71387, 31.16571], [-3.70206, 31.17603], [-3.69789, 31.16158], [-3.68093, 31.16521], [-3.67155, 31.15125], [-3.67954, 31.08652], [-3.64386, 31.08196], [-3.66645, 31.09027], [-3.66464, 31.10251], [-3.64474, 31.09329], [-3.63658, 31.09966], [-3.65159, 31.1343], [-3.63865, 31.1417], [-3.63899, 31.16977], [-3.63694, 31.1113], [-3.62964, 31.1064], [-3.61599, 31.11949], [-3.61758, 31.09925], [-3.60532, 31.09548], [-3.6058, 31.07629], [-3.59161, 31.07423], [-3.59218, 31.05834], [-3.57389, 31.04301], [-3.57205, 31.05162], [-3.55918, 31.04928], [-3.56131, 31.06064], [-3.54861, 31.0615], [-3.55494, 31.0403], [-3.54838, 31.03168], [-3.542, 31.0386], [-3.53634, 31.01369], [-3.53799, 30.97377], [-3.54865, 30.96346], [-3.54054, 30.95509], [-3.55731, 30.94834], [-3.55674, 30.93214], [-3.5753, 30.93396], [-3.57546, 30.92234], [-3.58658, 30.91915], [-3.58287, 30.90797], [-3.59354, 30.89459], [-3.60469, 30.89484], [-3.61572, 30.86577], [-3.63623, 30.87568], [-3.63876, 30.85827], [-3.65961, 30.85161], [-3.65087, 30.83926], [-3.64463, 30.76761], [-3.63545, 30.76448], [-3.62959, 30.74465], [-3.6447, 30.69044], [-3.66725, 30.66016], [-3.68194, 30.66786], [-3.74278, 30.63963], [-3.8168, 30.59036], [-3.88654, 30.61069], [-3.92001, 30.59912], [-4.14657, 30.5853], [-4.32127, 30.52887], [-4.60748, 30.28262], [-4.93662, 30.14047], [-5.11454, 30.0095], [-5.18633, 29.9702], [-5.28607, 29.89761], [-5.32763, 29.83676], [-5.32065, 29.79781], [-5.33469, 29.76841], [-5.56548, 29.47659], [-5.578, 29.48957], [-5.60598, 29.48886], [-5.65081, 29.50454], [-5.68877, 29.53954], [-5.71453, 29.51983], [-5.74924, 29.51827], [-5.74416, 29.54811], [-5.72324, 29.5862], [-5.74576, 29.60069], [-5.79986, 29.61468], [-5.86352, 29.60792], [-5.87978, 29.59588], [-5.9573, 29.59002], [-6.06273, 29.56256], [-6.16532, 29.5823], [-6.22091, 29.57779], [-6.24746, 29.5654], [-6.37387, 29.56816], [-6.39043, 29.55121], [-6.40915, 29.56308], [-6.44851, 29.56564], [-6.40546, 29.64685], [-6.42494, 29.69917], [-6.39027, 29.74516], [-6.43176, 29.97298], [-6.40049, 29.99948], [-6.35708, 30.01182], [-6.35365, 30.03076], [-6.39797, 30.04657], [-6.47913, 30.02601], [-6.50783, 30.0751], [-6.48831, 30.12834], [-6.58969, 30.22929], [-6.51074, 30.29065], [-6.51222, 30.31591], [-6.5486, 30.34186], [-6.61419, 30.41359], [-6.63823, 30.4155], [-6.6441, 30.42727], [-6.63909, 30.43905], [-6.65734, 30.46162], [-6.68937, 30.44749], [-6.81093, 30.42329], [-6.83251, 30.46033], [-6.86124, 30.45738], [-6.85473, 30.43822], [-6.85616, 30.36104], [-6.88272, 30.33183], [-6.89864, 30.34756], [-6.92455, 30.35519], [-7.02246, 30.33464], [-7.1597, 30.37662], [-7.29546, 30.21325], [-7.29849, 30.1645], [-7.28815, 30.12201], [-7.30152, 30.10345], [-7.33143, 30.12686], [-7.36929, 30.18931], [-7.42246, 30.18695], [-7.47018, 30.21312], [-7.49045, 30.19791], [-7.53776, 30.22562], [-7.59057, 30.20724], [-7.62588, 30.2122], [-7.62885, 30.22727], [-7.58185, 30.2475], [-7.57958, 30.28161], [-7.60836, 30.31661], [-7.62816, 30.40548], [-7.67929, 30.37855], [-7.69253, 30.42417], [-7.68639, 30.4497], [-7.61146, 30.4813], [-7.5708, 30.52534], [-7.54437, 30.52794], [-7.51579, 30.54326], [-7.55501, 30.59768], [-7.56972, 30.64377], [-7.55684, 30.65109], [-7.57074, 30.72942], [-7.70985, 30.74091], [-7.67066, 30.77275], [-7.66783, 30.79116], [-7.6795, 30.81763], [-7.6686, 30.83807], [-7.63015, 30.86264], [-7.70888, 30.85112], [-7.73369, 30.86102], [-7.71444, 31.03799], [-7.75124, 31.09948], [-7.74401, 31.1272], [-7.73179, 31.13463], [-7.71218, 31.13131], [-7.69687, 31.16262], [-7.65014, 31.19135], [-7.59911, 31.20902], [-7.58409, 31.24512], [-7.49877, 31.25076], [-7.47778, 31.27041], [-7.4361, 31.2842], [-7.43583, 31.29128], [-7.38648, 31.28668], [-7.3056, 31.31818], [-7.25284, 31.34889], [-7.23391, 31.37472], [-7.23922, 31.3927], [-7.21787, 31.41387], [-7.18452, 31.42896], [-7.17373, 31.41689], [-7.15566, 31.4283], [-7.12685, 31.36647], [-7.06077, 31.37034], [-7.03914, 31.39027], [-7.00899, 31.33899], [-6.99593, 31.3493], [-6.97258, 31.35118], [-6.8092, 31.34334], [-6.73305, 31.34882], [-6.71874, 31.35774], [-6.71296, 31.37572], [-6.70101, 31.46948], [-6.63293, 31.46149], [-6.56332, 31.50785], [-6.49513, 31.53582], [-6.48078, 31.55553], [-6.44973, 31.54763], [-6.42346, 31.5788], [-6.39646, 31.59114], [-6.12259, 31.69121], [-6.01771, 31.72021], [-5.98005, 31.73997], [-5.92062, 31.82112], [-5.81729, 31.85757], [-5.82538, 31.86837], [-5.82396, 31.89373], [-5.79858, 31.92805], [-5.80267, 31.9389], [-5.82587, 31.96374], [-5.88818, 31.98342], [-5.86827, 32.09805], [-5.84369, 32.13234], [-5.80267, 32.1275], [-5.74707, 32.14459], [-5.67795, 32.21382], [-5.58721, 32.22139], [-5.56317, 32.23993], [-5.44699, 32.21717], [-5.45549, 32.24329], [-5.4998, 32.2736], [-5.50767, 32.29449], [-5.47397, 32.3464], [-5.53394, 32.36191], [-5.52472, 32.39087], [-5.53633, 32.42051], [-5.52792, 32.43642], [-5.5359, 32.45399], [-5.46346, 32.45459], [-5.41042, 32.46567], [-5.39617, 32.48254], [-5.39385, 32.49862], [-5.40484, 32.5153], [-5.39798, 32.52476], [-5.35497, 32.51549], [-5.3391, 32.57373], [-5.34639, 32.60237], [-5.32227, 32.61748], [-5.31318, 32.66691], [-5.32142, 32.69899], [-5.31369, 32.7317], [-5.31678, 32.7776], [-5.2991, 32.79521], [-5.31163, 32.80709], [-5.28769, 32.83972], [-5.24928, 32.85651], [-5.25455, 32.86937], [-5.19022, 32.91552], [-5.16871, 32.90467], [-5.14186, 32.90886], [-5.12747, 32.94548], [-5.05685, 32.98089], [-5.07172, 33.02373], [-5.02666, 33.06739], [-4.99645, 33.08316], [-4.84564, 33.07592], [-4.82774, 33.09795], [-4.80832, 33.04761], [-4.77459, 33.01802], [-4.76643, 33.00038], [-4.75502, 32.95995], [-4.77295, 32.9271], [-4.76979, 32.91225], [-4.65647, 32.88055], [-4.623, 32.87968], [-4.55809, 32.89627], [-4.4775, 32.88272], [-4.48723, 32.86755], [-4.46409, 32.84235], [-4.37134, 32.78687], [-4.28503, 32.71475], [-4.21682, 32.61378], [-4.17408, 32.60105], [-4.10358, 32.62304], [-4.05787, 32.60056], [-4.01816, 32.60844], [-4.00295, 32.57946]]]}}, {"type": "Feature", "properties": {"shapeID": "70788906B1820144472977", "shapeName": "Souss-Massa"}, "geometry": {"type": "Polygon", "coordinates": [[[-7.74401, 31.1272], [-7.75238, 31.10532], [-7.71444, 31.03799], [-7.73369, 30.86102], [-7.70888, 30.85112], [-7.63015, 30.86264], [-7.6686, 30.83807], [-7.6795, 30.81763], [-7.66783, 30.79116], [-7.67066, 30.77275], [-7.70985, 30.74091], [-7.57074, 30.72942], [-7.55684, 30.65109], [-7.56972, 30.64377], [-7.55501, 30.59768], [-7.51579, 30.54326], [-7.54437, 30.52794], [-7.5708, 30.52534], [-7.61146, 30.4813], [-7.68639, 30.4497], [-7.69253, 30.42417], [-7.67929, 30.37855], [-7.62816, 30.40548], [-7.60836, 30.31661], [-7.57958, 30.28161], [-7.58185, 30.2475], [-7.62885, 30.22727], [-7.62588, 30.2122], [-7.59057, 30.20724], [-7.53776, 30.22562], [-7.49045, 30.19791], [-7.47018, 30.21312], [-7.42246, 30.18695], [-7.36929, 30.18931], [-7.33143, 30.12686], [-7.30152, 30.10345], [-7.28815, 30.12201], [-7.29849, 30.1645], [-7.29546, 30.21325], [-7.1597, 30.37662], [-7.02246, 30.33464], [-6.92455, 30.35519], [-6.89864, 30.34756], [-6.88272, 30.33183], [-6.85616, 30.36104], [-6.85473, 30.43822], [-6.86124, 30.45738], [-6.83251, 30.46033], [-6.81093, 30.42329], [-6.68937, 30.44749], [-6.65734, 30.46162], [-6.63909, 30.43905], [-6.6441, 30.42727], [-6.63823, 30.4155], [-6.61419, 30.41359], [-6.5486, 30.34186], [-6.51222, 30.31591], [-6.51074, 30.29065], [-6.58969, 30.22929], [-6.48831, 30.12834], [-6.50783, 30.0751], [-6.47913, 30.02601], [-6.39797, 30.04657], [-6.35365, 30.03076], [-6.35708, 30.01182], [-6.40049, 29.99948], [-6.43176, 29.97298], [-6.39027, 29.74516], [-6.42494, 29.69917], [-6.40546, 29.64685], [-6.44851, 29.56564], [-6.48742, 29.55158], [-6.52764, 29.52151], [-6.61874, 29.52975], [-6.63129, 29.51972], [-6.69467, 29.51524], [-6.72097, 29.5057], [-6.76319, 29.464], [-6.83375, 29.46808], [-6.85606, 29.48271], [-6.89095, 29.485], [-6.9154, 29.49744], [-6.96478, 29.49442], [-6.9894, 29.50393], [-7.02263, 29.49359], [-7.10781, 29.52256], [-7.14983, 29.52271], [-7.23982, 29.48547], [-7.34068, 29.39613], [-7.38841, 29.37748], [-7.412, 29.38145], [-7.49503, 29.36481], [-7.59277, 29.37746], [-7.61859, 29.3676], [-7.63814, 29.30302], [-7.68429, 29.29778], [-7.78645, 29.25592], [-7.82375, 29.22716], [-7.82659, 29.21169], [-7.87315, 29.20149], [-7.8806, 29.18932], [-7.90425, 29.18688], [-7.92956, 29.17033], [-7.9608, 29.14093], [-7.95774, 29.12356], [-7.97189, 29.12319], [-8.06834, 29.06631], [-8.0777, 29.06754], [-8.13245, 29.02391], [-8.17211, 29.01536], [-8.19327, 28.99268], [-8.23565, 28.97413], [-8.26293, 28.94821], [-8.27821, 28.94679], [-8.311, 28.91642], [-8.32122, 28.91798], [-8.42602, 28.81806], [-8.51045, 28.77375], [-8.66891, 28.71409], [-8.66887, 28.31106], [-8.88316, 28.54494], [-8.91831, 28.5982], [-8.97053, 28.64498], [-8.97319, 28.68557], [-9.00119, 28.71403], [-9.13443, 28.72682], [-9.17981, 28.77974], [-9.20597, 28.79543], [-9.20209, 28.84285], [-9.1811, 28.85398], [-9.21556, 28.85985], [-9.22648, 28.89544], [-9.23773, 28.94072], [-9.22287, 28.95659], [-9.22426, 28.97744], [-9.24928, 28.98577], [-9.23405, 29.02694], [-9.24577, 29.07075], [-9.17582, 29.09066], [-9.20912, 29.05253], [-9.19539, 29.03778], [-9.17195, 29.0522], [-9.13839, 29.08215], [-9.16114, 29.10373], [-9.15994, 29.11143], [-9.09131, 29.15517], [-9.08507, 29.17282], [-9.0958, 29.21843], [-9.11125, 29.24385], [-9.13957, 29.26719], [-9.15039, 29.29697], [-9.16961, 29.35958], [-9.15779, 29.38576], [-9.20611, 29.43212], [-9.21744, 29.4535], [-9.2783, 29.49789], [-9.32894, 29.50872], [-9.36713, 29.5014], [-9.38447, 29.46442], [-9.39966, 29.46449], [-9.40653, 29.45148], [-9.40971, 29.46098], [-9.42061, 29.45634], [-9.4255, 29.4319], [-9.44472, 29.44595], [-9.4794, 29.44124], [-9.49047, 29.45971], [-9.50034, 29.42248], [-9.52832, 29.43474], [-9.52686, 29.44864], [-9.54343, 29.45582], [-9.5624, 29.48675], [-9.58626, 29.47787], [-9.5969, 29.43639], [-9.62136, 29.44057], [-9.6393, 29.46583], [-9.65312, 29.46852], [-9.64162, 29.45724], [-9.63269, 29.426], [-9.63844, 29.4026], [-9.6599, 29.3999], [-9.65724, 29.43183], [-9.70736, 29.4473], [-9.71105, 29.46688], [-9.73778, 29.46551], [-9.74444, 29.45373], [-9.77294, 29.44349], [-9.79362, 29.42525], [-9.84632, 29.42084], [-9.87191, 29.43892], [-9.88066, 29.43713], [-9.88487, 29.45806], [-9.91422, 29.48137], [-9.89293, 29.5052], [-9.88392, 29.53254], [-9.88916, 29.55853], [-9.90272, 29.53732], [-9.93087, 29.53627], [-9.9931, 29.50692], [-9.99962, 29.52179], [-10.00263, 29.53717], [-9.99164, 29.55255], [-9.98872, 29.57902], [-9.99941, 29.58756], [-9.99276, 29.60094], [-10.00891, 29.637], [-9.96109, 29.69903], [-9.83059, 29.809], [-9.78941, 29.86434], [-9.79115, 29.87515], [-9.76035, 29.91445], [-9.76178, 29.92826], [-9.74175, 29.95416], [-9.69649, 30.05055], [-9.66699, 30.08844], [-9.64248, 30.16901], [-9.64239, 30.20526], [-9.60374, 30.36527], [-9.60575, 30.4149], [-9.61837, 30.42339], [-9.61727, 30.41899], [-9.62929, 30.41806], [-9.62091, 30.42471], [-9.63238, 30.4238], [-9.63117, 30.41617], [-9.64975, 30.42752], [-9.64045, 30.41586], [-9.65042, 30.4256], [-9.64944, 30.43662], [-9.6612, 30.44598], [-9.67871, 30.49932], [-9.70407, 30.54235], [-9.73982, 30.55125], [-9.74703, 30.57303], [-9.78774, 30.6115], [-9.82718, 30.62725], [-9.88958, 30.62936], [-9.87741, 30.69055], [-9.85037, 30.72047], [-9.85168, 30.7324], [-9.80523, 30.81839], [-9.80928, 30.83735], [-9.82176, 30.83754], [-9.8271, 30.84768], [-9.80813, 30.88938], [-9.82087, 30.91387], [-9.8179, 30.93813], [-9.77099, 30.92773], [-9.76688, 30.88428], [-9.73419, 30.87314], [-9.73877, 30.84361], [-9.71559, 30.79144], [-9.6881, 30.78595], [-9.65412, 30.807], [-9.63864, 30.79994], [-9.60444, 30.85672], [-9.5931, 30.85772], [-9.56964, 30.84144], [-9.54302, 30.88451], [-9.53405, 30.88217], [-9.53333, 30.86385], [-9.51216, 30.8694], [-9.44316, 30.83847], [-9.38548, 30.86599], [-9.34611, 30.85514], [-9.34591, 30.87444], [-9.33519, 30.88819], [-9.2465, 30.80236], [-9.16839, 30.82768], [-9.02124, 30.81926], [-8.99688, 30.8254], [-8.98609, 30.89007], [-8.91642, 30.91492], [-8.8262, 30.97493], [-8.7821, 30.9374], [-8.7879, 30.92665], [-8.7612, 30.88869], [-8.76022, 30.83791], [-8.74177, 30.81072], [-8.72537, 30.81941], [-8.72752, 30.85626], [-8.66143, 30.90147], [-8.6465, 30.88845], [-8.60429, 30.8806], [-8.44751, 30.86429], [-8.41411, 30.87222], [-8.38697, 30.86304], [-8.34904, 30.86485], [-8.25028, 30.88956], [-8.22159, 30.91416], [-8.13624, 30.93877], [-8.01456, 30.9089], [-7.96334, 30.93649], [-7.93764, 30.98223], [-7.92711, 31.03193], [-7.91635, 31.03683], [-7.88695, 31.10676], [-7.80968, 31.14535], [-7.82493, 31.16659], [-7.79326, 31.15428], [-7.78347, 31.16258], [-7.76982, 31.1429], [-7.73179, 31.13463], [-7.74401, 31.1272]]]}}, {"type": "Feature", "properties": {"shapeID": "70788906B64069740334949", "shapeName": "Guelmim-Oued Noun"}, "geometry": {"type": "Polygon", "coordinates": [[[-8.75422, 27.14715], [-8.87456, 27.18319], [-8.97199, 27.27829], [-9.06103, 27.3139], [-9.17212, 27.40948], [-9.28871, 27.47211], [-9.40681, 27.42374], [-9.54414, 27.40229], [-9.76318, 27.5365], [-9.7982, 27.56897], [-9.81416, 27.59117], [-9.81622, 27.61294], [-9.86171, 27.66189], [-9.89931, 27.67348], [-9.91579, 27.64822], [-9.96592, 27.63472], [-9.98532, 27.63821], [-10.01738, 27.6543], [-10.05832, 27.70977], [-10.09202, 27.71048], [-10.11154, 27.70055], [-10.13706, 27.71403], [-10.21233, 27.79906], [-10.24836, 27.8095], [-10.41642, 27.80476], [-10.71872, 27.76785], [-10.78635, 27.78641], [-10.87063, 27.77394], [-10.90154, 27.75753], [-11.18975, 27.73838], [-11.22821, 27.75844], [-11.3609, 27.7961], [-11.48541, 27.80705], [-11.55143, 27.83624], [-11.58505, 27.86588], [-11.69904, 28.05877], [-11.71157, 28.12348], [-11.77216, 28.18136], [-11.78193, 28.20961], [-11.5062, 28.31], [-11.45205, 28.34934], [-11.44251, 28.37681], [-11.40681, 28.40521], [-11.38185, 28.44654], [-11.35368, 28.4668], [-11.3483, 28.47842], [-11.35861, 28.47375], [-11.35762, 28.48365], [-11.23978, 28.57984], [-11.21254, 28.61474], [-11.10028, 28.69908], [-11.07346, 28.74239], [-10.7035, 28.9172], [-10.50652, 29.03158], [-10.44034, 29.09596], [-10.424, 29.12862], [-10.32912, 29.23521], [-10.21663, 29.31223], [-10.19123, 29.36187], [-10.20091, 29.35729], [-10.12121, 29.43987], [-10.09964, 29.48068], [-10.07806, 29.50057], [-10.07238, 29.53353], [-10.04802, 29.58636], [-10.00981, 29.63064], [-9.99276, 29.60094], [-9.99941, 29.58756], [-9.98872, 29.57902], [-9.99164, 29.55255], [-10.00263, 29.53717], [-9.9931, 29.50692], [-9.93087, 29.53627], [-9.90272, 29.53732], [-9.88916, 29.55853], [-9.88392, 29.53254], [-9.89293, 29.5052], [-9.91422, 29.48137], [-9.88487, 29.45806], [-9.88066, 29.43713], [-9.87191, 29.43892], [-9.84632, 29.42084], [-9.78315, 29.42839], [-9.73778, 29.46551], [-9.71105, 29.46688], [-9.70736, 29.4473], [-9.65724, 29.43183], [-9.6599, 29.3999], [-9.63844, 29.4026], [-9.63269, 29.426], [-9.64162, 29.45724], [-9.65312, 29.46852], [-9.6393, 29.46583], [-9.62136, 29.44057], [-9.5969, 29.43639], [-9.58626, 29.47787], [-9.5624, 29.48675], [-9.54343, 29.45582], [-9.52686, 29.44864], [-9.52832, 29.43474], [-9.50034, 29.42248], [-9.49047, 29.45971], [-9.4794, 29.44124], [-9.44472, 29.44595], [-9.4255, 29.4319], [-9.42061, 29.45634], [-9.40971, 29.46098], [-9.40653, 29.45148], [-9.39966, 29.46449], [-9.38447, 29.46442], [-9.36713, 29.5014], [-9.32894, 29.50872], [-9.2783, 29.49789], [-9.21744, 29.4535], [-9.20611, 29.43212], [-9.15779, 29.38576], [-9.16961, 29.35958], [-9.15039, 29.29697], [-9.13957, 29.26719], [-9.11125, 29.24385], [-9.0958, 29.21843], [-9.08559, 29.1849], [-9.09131, 29.15517], [-9.15994, 29.11143], [-9.16114, 29.10373], [-9.13839, 29.08215], [-9.17195, 29.0522], [-9.19539, 29.03778], [-9.20912, 29.05253], [-9.17582, 29.09066], [-9.24577, 29.07075], [-9.23405, 29.02694], [-9.24928, 28.98577], [-9.22426, 28.97744], [-9.22287, 28.95659], [-9.23773, 28.94072], [-9.22648, 28.89544], [-9.21556, 28.85985], [-9.1811, 28.85398], [-9.20209, 28.84285], [-9.20597, 28.79543], [-9.17981, 28.77974], [-9.13443, 28.72682], [-9.00119, 28.71403], [-8.97319, 28.68557], [-8.97053, 28.64498], [-8.91831, 28.5982], [-8.88316, 28.54494], [-8.66887, 28.31106], [-8.6676, 27.13613], [-8.75422, 27.14715]]]}}, {"type": "Feature", "properties": {"shapeID": "70788906B33851053053385", "shapeName": "Casablanca-Settat"}, "geometry": {"type": "Polygon", "coordinates": [[[-8.89976, 32.843], [-8.75701, 32.9795], [-8.75581, 32.97075], [-8.74482, 32.97716], [-8.72877, 32.99638], [-8.7564, 32.98053], [-8.6323, 33.11132], [-8.62893, 33.12054], [-8.63752, 33.1251], [-8.6281, 33.12085], [-8.63214, 33.12546], [-8.62624, 33.12292], [-8.63061, 33.12736], [-8.62528, 33.12494], [-8.61925, 33.1339], [-8.63232, 33.13446], [-8.64501, 33.12336], [-8.63189, 33.13513], [-8.61271, 33.13328], [-8.62967, 33.16306], [-8.52609, 33.25925], [-8.5192, 33.25584], [-8.50982, 33.26474], [-8.48782, 33.24569], [-8.44684, 33.25213], [-8.3381, 33.31886], [-8.31156, 33.35959], [-8.29802, 33.36755], [-8.21776, 33.3848], [-8.18196, 33.40436], [-8.13833, 33.41075], [-7.95877, 33.48276], [-7.93039, 33.48477], [-7.8238, 33.53706], [-7.81694, 33.5273], [-7.79937, 33.53039], [-7.79471, 33.53987], [-7.75519, 33.55033], [-7.65231, 33.6139], [-7.63991, 33.6048], [-7.59161, 33.62068], [-7.61857, 33.60525], [-7.60013, 33.60217], [-7.60547, 33.61051], [-7.5961, 33.60551], [-7.59379, 33.61302], [-7.58803, 33.60397], [-7.59066, 33.61389], [-7.58482, 33.60533], [-7.53603, 33.62087], [-7.4035, 33.70688], [-7.41199, 33.70453], [-7.40311, 33.71203], [-7.39921, 33.7212], [-7.38752, 33.73379], [-7.39931, 33.71174], [-7.35757, 33.71258], [-7.22804, 33.80412], [-7.19016, 33.80461], [-7.16919, 33.82092], [-7.15311, 33.81941], [-7.14727, 33.82825], [-7.14494, 33.82734], [-7.14699, 33.81985], [-7.14508, 33.81949], [-7.14255, 33.82162], [-7.145, 33.82223], [-7.1454, 33.82518], [-7.14424, 33.82659], [-7.12602, 33.83176], [-7.0994, 33.79526], [-7.06026, 33.79769], [-7.06249, 33.78314], [-7.03913, 33.76201], [-7.02145, 33.70305], [-7.02919, 33.68263], [-7.01888, 33.67863], [-6.99777, 33.63089], [-7.00395, 33.61504], [-6.992, 33.60978], [-6.99221, 33.59102], [-6.97243, 33.574], [-6.98062, 33.56863], [-6.95848, 33.54432], [-6.94628, 33.54569], [-6.94942, 33.56499], [-6.92578, 33.58411], [-6.90795, 33.57192], [-6.81646, 33.57181], [-6.77355, 33.56228], [-6.75694, 33.54272], [-6.78207, 33.50265], [-6.82758, 33.47866], [-6.82457, 33.45282], [-6.79633, 33.42723], [-6.80902, 33.39708], [-6.79743, 33.27559], [-6.8011, 33.23982], [-6.84129, 33.22435], [-6.86913, 33.20167], [-6.89254, 33.14149], [-6.89516, 33.10575], [-6.91379, 33.10164], [-6.9031, 33.07673], [-6.93219, 33.05697], [-6.92255, 33.04871], [-6.94442, 33.00891], [-6.94286, 32.99175], [-6.96881, 32.95262], [-7.00255, 32.95612], [-7.00826, 32.94743], [-6.99872, 32.93837], [-7.00605, 32.92232], [-6.99987, 32.8478], [-7.02892, 32.78859], [-7.03441, 32.77013], [-7.02241, 32.77042], [-7.04575, 32.73358], [-7.05592, 32.69871], [-6.98649, 32.63569], [-6.99629, 32.56049], [-7.01512, 32.55661], [-6.99469, 32.52023], [-6.99221, 32.49946], [-7.04068, 32.37365], [-7.10553, 32.35298], [-7.13304, 32.31927], [-7.14449, 32.33555], [-7.15404, 32.3277], [-7.1773, 32.33582], [-7.19016, 32.33027], [-7.19665, 32.3466], [-7.22136, 32.36738], [-7.25678, 32.37363], [-7.25908, 32.38942], [-7.28288, 32.40242], [-7.30566, 32.39692], [-7.31879, 32.41153], [-7.33765, 32.40579], [-7.34252, 32.42567], [-7.37726, 32.46448], [-7.41431, 32.44646], [-7.46628, 32.45784], [-7.46937, 32.44087], [-7.48154, 32.44224], [-7.48895, 32.46728], [-7.50178, 32.46834], [-7.50199, 32.45434], [-7.54574, 32.44568], [-7.55181, 32.45304], [-7.59533, 32.45626], [-7.6265, 32.46843], [-7.65056, 32.49559], [-7.67272, 32.49759], [-7.66683, 32.51444], [-7.68481, 32.51976], [-7.68285, 32.53378], [-7.69707, 32.53002], [-7.70085, 32.55081], [-7.72044, 32.55594], [-7.71276, 32.56773], [-7.72215, 32.57383], [-7.71761, 32.58149], [-7.73094, 32.58764], [-7.71668, 32.59313], [-7.77638, 32.6053], [-7.84527, 32.66078], [-7.87463, 32.67064], [-7.89391, 32.69167], [-7.90936, 32.69162], [-7.92139, 32.71185], [-7.9201, 32.72584], [-7.94437, 32.74008], [-7.9627, 32.76489], [-7.96182, 32.78166], [-7.99101, 32.79608], [-7.99607, 32.81425], [-8.03685, 32.79088], [-8.07441, 32.67682], [-8.05541, 32.57267], [-8.11776, 32.50209], [-8.31517, 32.4186], [-8.36642, 32.3629], [-8.43579, 32.35786], [-8.4387, 32.3477], [-8.47056, 32.34193], [-8.48064, 32.32864], [-8.50675, 32.33115], [-8.51707, 32.31669], [-8.53302, 32.31648], [-8.54262, 32.29663], [-8.55706, 32.2973], [-8.54821, 32.33211], [-8.5767, 32.35099], [-8.61103, 32.4198], [-8.62982, 32.47938], [-8.66309, 32.51321], [-8.68911, 32.52533], [-8.71435, 32.52279], [-8.74368, 32.50478], [-8.74576, 32.51732], [-8.7542, 32.50854], [-8.80302, 32.51199], [-8.85212, 32.49424], [-8.93249, 32.52267], [-8.93127, 32.52975], [-8.97148, 32.56844], [-8.99466, 32.58057], [-9.00688, 32.6099], [-9.01841, 32.60862], [-9.0037, 32.65587], [-8.98019, 32.67414], [-9.04874, 32.72192], [-9.05932, 32.72101], [-8.89976, 32.843]]]}}, {"type": "Feature", "properties": {"shapeID": "70788906B60308563647099", "shapeName": "Marrakech-Safi"}, "geometry": {"type": "Polygon", "coordinates": [[[-7.21787, 31.41387], [-7.23922, 31.3927], [-7.23391, 31.37472], [-7.25284, 31.34889], [-7.3056, 31.31818], [-7.38648, 31.28668], [-7.43583, 31.29128], [-7.4361, 31.2842], [-7.47778, 31.27041], [-7.49877, 31.25076], [-7.58409, 31.24512], [-7.59911, 31.20902], [-7.65014, 31.19135], [-7.69687, 31.16262], [-7.71218, 31.13131], [-7.76982, 31.1429], [-7.78347, 31.16258], [-7.79326, 31.15428], [-7.82493, 31.16659], [-7.80968, 31.14535], [-7.88695, 31.10676], [-7.91635, 31.03683], [-7.92711, 31.03193], [-7.93764, 30.98223], [-7.96334, 30.93649], [-8.01456, 30.9089], [-8.13624, 30.93877], [-8.22159, 30.91416], [-8.25028, 30.88956], [-8.34904, 30.86485], [-8.38697, 30.86304], [-8.41411, 30.87222], [-8.44751, 30.86429], [-8.60429, 30.8806], [-8.6465, 30.88845], [-8.66143, 30.90147], [-8.72752, 30.85626], [-8.72537, 30.81941], [-8.74177, 30.81072], [-8.76022, 30.83791], [-8.7612, 30.88869], [-8.7879, 30.92665], [-8.7821, 30.9374], [-8.8262, 30.97493], [-8.91642, 30.91492], [-8.98609, 30.89007], [-8.99688, 30.8254], [-9.02124, 30.81926], [-9.16839, 30.82768], [-9.2465, 30.80236], [-9.33519, 30.88819], [-9.34591, 30.87444], [-9.34611, 30.85514], [-9.38548, 30.86599], [-9.44316, 30.83847], [-9.51216, 30.8694], [-9.53333, 30.86385], [-9.53405, 30.88217], [-9.54302, 30.88451], [-9.56964, 30.84144], [-9.5931, 30.85772], [-9.60444, 30.85672], [-9.63864, 30.79994], [-9.65412, 30.807], [-9.6881, 30.78595], [-9.71559, 30.79144], [-9.73877, 30.84361], [-9.73419, 30.87314], [-9.76688, 30.88428], [-9.77099, 30.92773], [-9.8179, 30.93813], [-9.82666, 30.96381], [-9.80793, 31.00878], [-9.82477, 31.05846], [-9.81899, 31.09058], [-9.84188, 31.10446], [-9.83406, 31.12622], [-9.83802, 31.14658], [-9.81623, 31.19008], [-9.82058, 31.23403], [-9.80004, 31.27829], [-9.79487, 31.32853], [-9.81148, 31.3799], [-9.84249, 31.39048], [-9.8343, 31.41169], [-9.79177, 31.45474], [-9.76661, 31.49492], [-9.76877, 31.51], [-9.7754, 31.50589], [-9.77134, 31.51689], [-9.73541, 31.54384], [-9.68782, 31.60389], [-9.6756, 31.63549], [-9.67608, 31.69858], [-9.34465, 32.03353], [-9.32953, 32.0666], [-9.32231, 32.11295], [-9.26359, 32.17187], [-9.2523, 32.20356], [-9.25306, 32.22781], [-9.26568, 32.25175], [-9.24378, 32.30038], [-9.24982, 32.30508], [-9.25335, 32.31134], [-9.2566, 32.31315], [-9.25301, 32.31154], [-9.24937, 32.30517], [-9.24523, 32.30155], [-9.25308, 32.31971], [-9.28075, 32.32993], [-9.29054, 32.36248], [-9.24842, 32.41748], [-9.23197, 32.47849], [-9.26214, 32.50408], [-9.28483, 32.54225], [-9.12593, 32.65831], [-9.05932, 32.72101], [-9.04874, 32.72192], [-8.98019, 32.67414], [-9.0037, 32.65587], [-9.01841, 32.60862], [-9.00688, 32.6099], [-8.99466, 32.58057], [-8.97148, 32.56844], [-8.93127, 32.52975], [-8.93249, 32.52267], [-8.85212, 32.49424], [-8.80302, 32.51199], [-8.7542, 32.50854], [-8.74576, 32.51732], [-8.74368, 32.50478], [-8.71435, 32.52279], [-8.68911, 32.52533], [-8.66309, 32.51321], [-8.62982, 32.47938], [-8.61103, 32.4198], [-8.5767, 32.35099], [-8.54821, 32.33211], [-8.55706, 32.2973], [-8.54262, 32.29663], [-8.53302, 32.31648], [-8.51707, 32.31669], [-8.50675, 32.33115], [-8.48064, 32.32864], [-8.47056, 32.34193], [-8.4387, 32.3477], [-8.43579, 32.35786], [-8.36642, 32.3629], [-8.31517, 32.4186], [-8.11776, 32.50209], [-8.05541, 32.57267], [-8.07441, 32.67682], [-8.03685, 32.79088], [-7.99607, 32.81425], [-7.99101, 32.79608], [-7.96182, 32.78166], [-7.9627, 32.76489], [-7.94437, 32.74008], [-7.9201, 32.72584], [-7.92139, 32.71185], [-7.90936, 32.69162], [-7.89391, 32.69167], [-7.87463, 32.67064], [-7.84527, 32.66078], [-7.77638, 32.6053], [-7.71668, 32.59313], [-7.73094, 32.58764], [-7.71761, 32.58149], [-7.72215, 32.57383], [-7.71276, 32.56773], [-7.72044, 32.55594], [-7.70085, 32.55081], [-7.69707, 32.53002], [-7.68285, 32.53378], [-7.68481, 32.51976], [-7.66683, 32.51444], [-7.67272, 32.49759], [-7.65056, 32.49559], [-7.6265, 32.46843], [-7.59533, 32.45626], [-7.55181, 32.45304], [-7.54574, 32.44568], [-7.50199, 32.45434], [-7.50178, 32.46834], [-7.48895, 32.46728], [-7.48154, 32.44224], [-7.46937, 32.44087], [-7.46628, 32.45784], [-7.41431, 32.44646], [-7.37726, 32.46448], [-7.34252, 32.42567], [-7.33558, 32.40463], [-7.31879, 32.41153], [-7.30911, 32.3976], [-7.28288, 32.40242], [-7.25908, 32.38942], [-7.25678, 32.37363], [-7.22136, 32.36738], [-7.18868, 32.32954], [-7.1773, 32.33582], [-7.15404, 32.3277], [-7.14449, 32.33555], [-7.12903, 32.31479], [-7.11689, 32.32563], [-7.10047, 32.3053], [-7.11618, 32.23195], [-7.10502, 32.21333], [-7.13095, 32.12911], [-7.11814, 32.08565], [-7.11742, 32.04595], [-7.11022, 32.02033], [-7.05754, 31.98257], [-7.05299, 31.97254], [-7.06906, 31.9654], [-7.06297, 31.94098], [-7.06792, 31.90752], [-7.05161, 31.90426], [-7.05539, 31.89348], [-7.02913, 31.85973], [-7.02051, 31.86069], [-7.02372, 31.84617], [-7.01279, 31.84676], [-7.00207, 31.82131], [-7.03481, 31.82761], [-7.0433, 31.78754], [-7.0243, 31.77436], [-7.04889, 31.76073], [-7.10323, 31.75985], [-7.1691, 31.74365], [-7.22932, 31.77304], [-7.22945, 31.76186], [-7.2656, 31.76148], [-7.26537, 31.73931], [-7.28204, 31.74739], [-7.28509, 31.73372], [-7.31856, 31.71301], [-7.3026, 31.69526], [-7.32114, 31.69344], [-7.31667, 31.67028], [-7.26974, 31.67334], [-7.26373, 31.62147], [-7.22215, 31.60846], [-7.19348, 31.55954], [-7.13414, 31.55772], [-7.13075, 31.53678], [-7.13963, 31.52913], [-7.14856, 31.48253], [-7.15708, 31.46752], [-7.17046, 31.46685], [-7.18452, 31.42896], [-7.21787, 31.41387]]]}}, {"type": "Feature", "properties": {"shapeID": "70788906B40522022577718", "shapeName": "Dakhla-Oued Ed-Dahab"}, "geometry": {"type": "Polygon", "coordinates": [[[-14.88649, 24.64254], [-14.78525, 24.55486], [-14.66376, 24.52589], [-14.6217, 24.49873], [-14.60934, 24.475], [-14.56317, 24.43267], [-14.50611, 24.41613], [-14.30482, 24.47311], [-14.07589, 24.48397], [-13.81152, 24.42824], [-13.68897, 24.39051], [-13.51335, 24.43356], [-13.295, 24.51271], [-13.12025, 24.52723], [-12.88662, 24.48162], [-12.61125, 24.38325], [-12.53947, 24.38359], [-12.26426, 24.43854], [-12.11303, 24.4159], [-12.0, 24.38543], [-12.00028, 23.45444], [-12.15583, 23.41639], [-12.36583, 23.31861], [-12.57139, 23.29139], [-12.99833, 23.02472], [-13.10528, 22.89306], [-13.15029, 22.75751], [-13.08399, 22.53667], [-12.99964, 21.33672], [-14.02889, 21.3425], [-16.94794, 21.33417], [-16.9956, 21.12807], [-17.035, 21.05361], [-17.04056, 20.99333], [-17.06833, 20.91549], [-17.0675, 20.85056], [-17.05024, 20.76979], [-17.08205, 20.82512], [-17.09545, 20.82623], [-17.10483, 20.84399], [-17.07801, 20.88597], [-17.09526, 20.92253], [-17.06348, 21.00158], [-17.06489, 21.0789], [-17.04389, 21.1626], [-17.05048, 21.18473], [-17.02769, 21.29133], [-17.03058, 21.33862], [-16.98191, 21.56023], [-16.98551, 21.60443], [-16.9737, 21.65224], [-16.98306, 21.70818], [-16.95016, 21.76125], [-16.96517, 21.77408], [-16.95834, 21.82725], [-16.90229, 21.89486], [-16.89678, 21.94291], [-16.84929, 22.04573], [-16.81223, 22.15143], [-16.80492, 22.16348], [-16.77096, 22.18065], [-16.77024, 22.19434], [-16.78189, 22.20264], [-16.76337, 22.22391], [-16.71721, 22.25451], [-16.68096, 22.29538], [-16.65318, 22.29357], [-16.63675, 22.26844], [-16.61442, 22.26961], [-16.54912, 22.29023], [-16.49429, 22.32557], [-16.49482, 22.34867], [-16.45998, 22.39182], [-16.43886, 22.50213], [-16.42764, 22.52241], [-16.38097, 22.55225], [-16.35988, 22.57811], [-16.34303, 22.6537], [-16.34405, 22.72043], [-16.33664, 22.75035], [-16.32927, 22.77592], [-16.28842, 22.83387], [-16.28946, 22.84838], [-16.30317, 22.85982], [-16.28846, 22.90461], [-16.26856, 22.89663], [-16.21049, 22.92028], [-16.16905, 22.95915], [-16.14791, 22.99486], [-16.14143, 23.02655], [-16.14918, 23.06079], [-16.17829, 23.09057], [-16.20867, 23.07807], [-16.19824, 23.10642], [-16.12429, 23.19057], [-16.11422, 23.20924], [-16.11466, 23.23255], [-16.06103, 23.30663], [-16.06529, 23.32925], [-16.00565, 23.38007], [-15.97883, 23.41963], [-15.95169, 23.47669], [-15.97535, 23.50924], [-15.94406, 23.52599], [-15.92147, 23.55872], [-15.90685, 23.56379], [-15.87686, 23.62841], [-15.85762, 23.63356], [-15.79219, 23.73266], [-15.801, 23.72739], [-15.74608, 23.77805], [-15.73482, 23.80743], [-15.70986, 23.82197], [-15.70923, 23.83587], [-15.74904, 23.81909], [-15.73066, 23.86528], [-15.74165, 23.90673], [-15.75226, 23.91486], [-15.77086, 23.88983], [-15.76375, 23.91349], [-15.76859, 23.92091], [-15.80129, 23.88034], [-15.81951, 23.88384], [-15.84594, 23.86111], [-15.89477, 23.79594], [-15.92374, 23.70077], [-15.95659, 23.67043], [-15.93979, 23.66185], [-15.94813, 23.6561], [-15.96014, 23.66964], [-15.98506, 23.627], [-16.00059, 23.63239], [-16.00498, 23.6489], [-15.9609, 23.69951], [-15.95622, 23.726], [-15.9241, 23.75741], [-15.90319, 23.8196], [-15.8049, 23.92204], [-15.59628, 24.04099], [-15.57969, 24.0601], [-15.58289, 24.07826], [-15.57241, 24.09469], [-15.53337, 24.1204], [-15.52022, 24.14429], [-15.41588, 24.24105], [-15.32704, 24.30616], [-15.22278, 24.43789], [-15.14469, 24.50066], [-15.01361, 24.55285], [-14.99137, 24.59867], [-14.9863, 24.63033], [-14.93983, 24.654], [-14.90488, 24.6832], [-14.88649, 24.64254]]]}}, {"type": "Feature", "properties": {"shapeID": "70788906B15955360211262", "shapeName": "Rabat-Sal\u00e9-Kenitra"}, "geometry": {"type": "Polygon", "coordinates": [[[-6.18586, 34.98888], [-6.13852, 34.99703], [-6.12677, 35.01046], [-6.10021, 35.01552], [-6.05799, 34.99816], [-6.06684, 34.99055], [-6.05377, 34.97648], [-6.02638, 34.97648], [-6.007, 34.99184], [-5.91945, 34.94096], [-5.87831, 34.93398], [-5.83322, 34.94364], [-5.78737, 34.93147], [-5.78113, 34.92106], [-5.79117, 34.88754], [-5.77447, 34.87411], [-5.791, 34.85067], [-5.78155, 34.77786], [-5.79486, 34.75075], [-5.77623, 34.73484], [-5.71934, 34.72706], [-5.71058, 34.71864], [-5.71458, 34.70475], [-5.6825, 34.71269], [-5.66663, 34.73435], [-5.64423, 34.74006], [-5.62929, 34.73626], [-5.63429, 34.72604], [-5.60475, 34.72264], [-5.60348, 34.71659], [-5.59009, 34.7216], [-5.57582, 34.69329], [-5.55183, 34.69364], [-5.55209, 34.66788], [-5.54084, 34.66812], [-5.5284, 34.63861], [-5.50574, 34.64458], [-5.48926, 34.63127], [-5.44482, 34.62362], [-5.42204, 34.60828], [-5.41274, 34.58665], [-5.43527, 34.55828], [-5.42773, 34.53673], [-5.39485, 34.52191], [-5.38699, 34.52268], [-5.38939, 34.53714], [-5.31515, 34.5159], [-5.34253, 34.48845], [-5.33524, 34.48052], [-5.34554, 34.4686], [-5.34365, 34.45572], [-5.36073, 34.44075], [-5.37961, 34.44001], [-5.39388, 34.41352], [-5.45562, 34.39421], [-5.49565, 34.37086], [-5.52887, 34.37546], [-5.53275, 34.3623], [-5.51874, 34.3646], [-5.49309, 34.34414], [-5.50428, 34.32286], [-5.49006, 34.31307], [-5.48236, 34.32588], [-5.47189, 34.3136], [-5.46285, 34.31911], [-5.44305, 34.30084], [-5.44606, 34.29327], [-5.42094, 34.25324], [-5.4362, 34.2335], [-5.45091, 34.23472], [-5.47371, 34.21206], [-5.4641, 34.19134], [-5.44311, 34.18454], [-5.46416, 34.1651], [-5.469, 34.14743], [-5.53148, 34.15988], [-5.54213, 34.1292], [-5.58198, 34.10783], [-5.59449, 34.1074], [-5.61126, 34.12277], [-5.70455, 34.12094], [-5.70133, 34.17396], [-5.74404, 34.15924], [-5.75098, 34.16708], [-5.76797, 34.16289], [-5.79338, 34.21103], [-5.79517, 34.19061], [-5.82948, 34.18859], [-5.81439, 34.15775], [-5.856, 34.14266], [-5.87987, 34.12023], [-5.88311, 34.10319], [-5.85425, 34.06446], [-5.8123, 34.04566], [-5.7987, 34.02423], [-5.8134, 34.0135], [-5.77614, 33.98107], [-5.75258, 33.94623], [-5.76293, 33.92789], [-5.774, 33.92869], [-5.77798, 33.89586], [-5.80085, 33.89169], [-5.80514, 33.86956], [-5.79001, 33.85566], [-5.76747, 33.85078], [-5.75323, 33.83745], [-5.76336, 33.81487], [-5.73407, 33.80451], [-5.71459, 33.78569], [-5.73229, 33.75291], [-5.74171, 33.70628], [-5.78546, 33.66722], [-5.7776, 33.6521], [-5.79177, 33.61088], [-5.80431, 33.60632], [-5.78044, 33.55424], [-5.77972, 33.51494], [-5.82398, 33.49056], [-5.78543, 33.47516], [-5.81622, 33.42698], [-5.80611, 33.39891], [-5.81706, 33.36101], [-5.79437, 33.33617], [-5.77417, 33.33408], [-5.82645, 33.30536], [-5.9107, 33.31397], [-5.9169, 33.31879], [-5.91114, 33.32917], [-5.92381, 33.31775], [-5.9355, 33.33208], [-5.94777, 33.3192], [-5.96332, 33.33203], [-5.97566, 33.3197], [-5.99209, 33.32199], [-5.99484, 33.30692], [-6.06996, 33.3057], [-6.09088, 33.31504], [-6.10294, 33.33665], [-6.12931, 33.34211], [-6.15654, 33.33672], [-6.17777, 33.34803], [-6.20315, 33.3425], [-6.21368, 33.35032], [-6.21243, 33.40053], [-6.1973, 33.43909], [-6.21363, 33.44714], [-6.27913, 33.45153], [-6.35277, 33.48261], [-6.36021, 33.48023], [-6.36052, 33.41844], [-6.37336, 33.40933], [-6.37775, 33.38947], [-6.4034, 33.36984], [-6.39186, 33.34743], [-6.41181, 33.32263], [-6.38147, 33.27488], [-6.38381, 33.256], [-6.40704, 33.22674], [-6.46082, 33.21804], [-6.47268, 33.19671], [-6.50969, 33.18734], [-6.52435, 33.15696], [-6.5412, 33.14883], [-6.55993, 33.17524], [-6.59262, 33.19133], [-6.66469, 33.21242], [-6.75755, 33.21278], [-6.79603, 33.22391], [-6.80507, 33.23568], [-6.79743, 33.27559], [-6.80902, 33.39708], [-6.79633, 33.42723], [-6.82457, 33.45282], [-6.82758, 33.47866], [-6.78207, 33.50265], [-6.75694, 33.54272], [-6.77355, 33.56228], [-6.81646, 33.57181], [-6.90795, 33.57192], [-6.92578, 33.58411], [-6.94942, 33.56499], [-6.94628, 33.54569], [-6.95848, 33.54432], [-6.98062, 33.56863], [-6.97243, 33.574], [-6.99221, 33.59102], [-6.992, 33.60978], [-7.00395, 33.61504], [-6.99777, 33.63089], [-7.01888, 33.67863], [-7.02919, 33.68263], [-7.02145, 33.70305], [-7.04343, 33.76986], [-7.06249, 33.78314], [-7.06026, 33.79769], [-7.0994, 33.79526], [-7.12602, 33.83176], [-7.06342, 33.86993], [-7.02931, 33.87742], [-6.9642, 33.92295], [-6.8402, 34.03782], [-6.834, 34.02969], [-6.82414, 34.02682], [-6.83828, 34.03967], [-6.78489, 34.08962], [-6.71858, 34.17612], [-6.68491, 34.24236], [-6.67894, 34.26074], [-6.68661, 34.26302], [-6.66589, 34.26156], [-6.64812, 34.27024], [-6.65378, 34.27435], [-6.66947, 34.26563], [-6.67789, 34.26491], [-6.68426, 34.26673], [-6.67549, 34.26525], [-6.52583, 34.46915], [-6.39026, 34.69813], [-6.30361, 34.86804], [-6.29444, 34.87077], [-6.29361, 34.87321], [-6.28254, 34.86661], [-6.28765, 34.84369], [-6.29672, 34.84406], [-6.29483, 34.8498], [-6.29822, 34.8436], [-6.29751, 34.82456], [-6.28881, 34.83131], [-6.29589, 34.8315], [-6.29663, 34.8432], [-6.27318, 34.82798], [-6.25992, 34.83945], [-6.28029, 34.81159], [-6.24903, 34.83759], [-6.25145, 34.85848], [-6.28902, 34.8757], [-6.30162, 34.87095], [-6.2434, 35.00139], [-6.18586, 34.98888]]]}}, {"type": "Feature", "properties": {"shapeID": "70788906B83815134303720", "shapeName": "Fez-Meknes"}, "geometry": {"type": "Polygon", "coordinates": [[[-5.28082, 34.51478], [-5.25619, 34.53251], [-5.26711, 34.54215], [-5.25861, 34.55604], [-5.19771, 34.55843], [-5.18145, 34.59035], [-5.19621, 34.59734], [-5.18064, 34.61428], [-5.18867, 34.66967], [-5.18076, 34.69257], [-5.18109, 34.73905], [-5.15345, 34.76039], [-5.11213, 34.77628], [-5.08385, 34.77462], [-5.08004, 34.78241], [-5.02081, 34.8008], [-5.0174, 34.79155], [-4.9778, 34.79028], [-4.88494, 34.8333], [-4.86305, 34.8252], [-4.79057, 34.84275], [-4.78746, 34.77279], [-4.77842, 34.75027], [-4.72386, 34.71904], [-4.62782, 34.72373], [-4.58855, 34.71512], [-4.57299, 34.6827], [-4.5408, 34.70172], [-4.50568, 34.70114], [-4.43409, 34.66802], [-4.41615, 34.7108], [-4.38082, 34.70567], [-4.31503, 34.72272], [-4.29364, 34.7515], [-4.30443, 34.76181], [-4.24805, 34.80668], [-4.21177, 34.76723], [-4.17059, 34.75138], [-4.1548, 34.75791], [-4.1434, 34.74404], [-4.09938, 34.76415], [-4.03444, 34.8261], [-3.93586, 34.83922], [-3.91948, 34.85165], [-3.82946, 34.86818], [-3.82012, 34.88753], [-3.75977, 34.88137], [-3.76358, 34.86181], [-3.75221, 34.84299], [-3.60463, 34.84369], [-3.593, 34.83035], [-3.59295, 34.78905], [-3.61975, 34.74102], [-3.59144, 34.70134], [-3.63434, 34.67379], [-3.64243, 34.65853], [-3.64096, 34.63323], [-3.69313, 34.62449], [-3.72346, 34.63999], [-3.74303, 34.62014], [-3.77162, 34.62233], [-3.75818, 34.59068], [-3.76917, 34.57496], [-3.74578, 34.54669], [-3.79561, 34.47515], [-3.84352, 34.45604], [-3.85088, 34.44606], [-3.84118, 34.4404], [-3.85577, 34.41137], [-3.83449, 34.41307], [-3.84591, 34.40459], [-3.83843, 34.39395], [-3.85955, 34.37114], [-3.84024, 34.36859], [-3.84371, 34.34312], [-3.83416, 34.33805], [-3.86249, 34.307], [-3.91718, 34.30133], [-3.90838, 34.26027], [-3.88871, 34.25959], [-3.88315, 34.25005], [-3.8889, 34.24111], [-3.878, 34.23139], [-3.89566, 34.22518], [-3.81552, 34.20989], [-3.83818, 34.12721], [-3.83036, 34.11763], [-3.83766, 34.0725], [-3.85294, 34.02955], [-3.82487, 34.00778], [-3.8924, 33.97294], [-3.91139, 33.91694], [-3.90178, 33.89244], [-3.9059, 33.87469], [-3.9277, 33.83168], [-3.97585, 33.78208], [-3.96606, 33.78065], [-3.95936, 33.73448], [-4.1034, 33.68239], [-4.08014, 33.675], [-4.08778, 33.66361], [-4.12313, 33.66379], [-4.10817, 33.63857], [-4.08543, 33.63905], [-4.10959, 33.5614], [-4.03089, 33.51689], [-4.01008, 33.52387], [-3.96112, 33.51323], [-3.94673, 33.51464], [-3.93022, 33.54575], [-3.89914, 33.55021], [-3.88887, 33.57087], [-3.87445, 33.57071], [-3.84757, 33.54231], [-3.84728, 33.52098], [-3.84333, 33.50942], [-3.83768, 33.51149], [-3.79442, 33.55748], [-3.85733, 33.59336], [-3.80284, 33.65678], [-3.73661, 33.67767], [-3.69316, 33.72797], [-3.65081, 33.74079], [-3.5424, 33.86796], [-3.53228, 33.89474], [-3.51639, 33.90957], [-3.49325, 33.9058], [-3.46644, 33.87751], [-3.37947, 33.8323], [-3.33089, 33.78691], [-3.30198, 33.7778], [-3.19067, 33.76017], [-3.04508, 33.76544], [-3.03238, 33.73147], [-3.12339, 33.66017], [-3.12044, 33.63345], [-3.19046, 33.57036], [-3.21367, 33.56522], [-3.22693, 33.55365], [-3.22793, 33.53466], [-3.25728, 33.51666], [-2.9992, 33.31764], [-2.90572, 33.21653], [-2.899, 33.19964], [-2.90695, 33.17701], [-2.9785, 33.13258], [-3.02867, 33.1138], [-3.34091, 33.05967], [-3.43584, 33.05657], [-3.55965, 33.09762], [-3.56755, 33.1081], [-3.60351, 33.09453], [-3.68275, 33.02694], [-3.72741, 32.94771], [-3.79887, 32.89575], [-3.86818, 32.82388], [-4.01593, 32.64076], [-4.01816, 32.60844], [-4.05787, 32.60056], [-4.10358, 32.62304], [-4.17408, 32.60105], [-4.21682, 32.61378], [-4.28503, 32.71475], [-4.37134, 32.78687], [-4.46409, 32.84235], [-4.48723, 32.86755], [-4.4775, 32.88272], [-4.55809, 32.89627], [-4.623, 32.87968], [-4.65647, 32.88055], [-4.76979, 32.91225], [-4.77295, 32.9271], [-4.75502, 32.95995], [-4.76643, 33.00038], [-4.77459, 33.01802], [-4.80832, 33.04761], [-4.82774, 33.09795], [-4.84564, 33.07592], [-4.99645, 33.08316], [-5.01719, 33.07363], [-5.07172, 33.02373], [-5.05685, 32.98089], [-5.12747, 32.94548], [-5.14186, 32.90886], [-5.16871, 32.90467], [-5.19022, 32.91552], [-5.27429, 32.861], [-5.24123, 32.92394], [-5.27326, 32.96661], [-5.30598, 32.98549], [-5.28814, 33.00388], [-5.29064, 33.02985], [-5.3193, 33.03501], [-5.3297, 33.08324], [-5.29888, 33.09753], [-5.28367, 33.12961], [-5.28198, 33.16866], [-5.29709, 33.1757], [-5.36742, 33.15298], [-5.44773, 33.16469], [-5.48601, 33.19403], [-5.4893, 33.23496], [-5.51244, 33.2564], [-5.50017, 33.30335], [-5.50639, 33.32495], [-5.5166, 33.31932], [-5.52474, 33.33917], [-5.54308, 33.34361], [-5.53881, 33.34945], [-5.57257, 33.36921], [-5.58068, 33.38727], [-5.61676, 33.38229], [-5.62517, 33.38989], [-5.67921, 33.39612], [-5.73696, 33.42152], [-5.74805, 33.4169], [-5.78265, 33.45407], [-5.78744, 33.47826], [-5.80083, 33.47647], [-5.82398, 33.49056], [-5.77972, 33.51494], [-5.78044, 33.55424], [-5.80431, 33.60632], [-5.79177, 33.61088], [-5.7776, 33.6521], [-5.78546, 33.66722], [-5.74171, 33.70628], [-5.73229, 33.75291], [-5.71459, 33.78569], [-5.73407, 33.80451], [-5.76336, 33.81487], [-5.75323, 33.83745], [-5.76747, 33.85078], [-5.79001, 33.85566], [-5.80747, 33.87491], [-5.80085, 33.89169], [-5.77798, 33.89586], [-5.774, 33.92869], [-5.76293, 33.92789], [-5.75258, 33.94623], [-5.77614, 33.98107], [-5.8134, 34.0135], [-5.7987, 34.02423], [-5.8123, 34.04566], [-5.85425, 34.06446], [-5.88311, 34.10319], [-5.87987, 34.12023], [-5.856, 34.14266], [-5.81439, 34.15775], [-5.82948, 34.18859], [-5.79517, 34.19061], [-5.79338, 34.21103], [-5.76797, 34.16289], [-5.75098, 34.16708], [-5.74404, 34.15924], [-5.70133, 34.17396], [-5.70455, 34.12094], [-5.61126, 34.12277], [-5.59449, 34.1074], [-5.58198, 34.10783], [-5.54213, 34.1292], [-5.53148, 34.15988], [-5.469, 34.14743], [-5.46416, 34.1651], [-5.44311, 34.18454], [-5.4641, 34.19134], [-5.47371, 34.21206], [-5.45091, 34.23472], [-5.4362, 34.2335], [-5.42094, 34.25324], [-5.44606, 34.29327], [-5.44305, 34.30084], [-5.46285, 34.31911], [-5.47189, 34.3136], [-5.48236, 34.32588], [-5.49006, 34.31307], [-5.50428, 34.32286], [-5.49309, 34.34414], [-5.51874, 34.3646], [-5.53275, 34.3623], [-5.52887, 34.37546], [-5.49565, 34.37086], [-5.45562, 34.39421], [-5.39388, 34.41352], [-5.37961, 34.44001], [-5.36073, 34.44075], [-5.34365, 34.45572], [-5.34554, 34.4686], [-5.33524, 34.48052], [-5.34253, 34.48845], [-5.31515, 34.5159], [-5.28082, 34.51478]]]}}, {"type": "Feature", "properties": {"shapeID": "70788906B63032885328780", "shapeName": "B\u00e9ni Mellal-Kh\u00e9nifra"}, "geometry": {"type": "Polygon", "coordinates": [[[-5.24928, 32.85651], [-5.28769, 32.83972], [-5.31163, 32.80709], [-5.2991, 32.79521], [-5.31678, 32.7776], [-5.31369, 32.7317], [-5.32142, 32.69899], [-5.31318, 32.66691], [-5.32227, 32.61748], [-5.34639, 32.60237], [-5.3391, 32.57373], [-5.35497, 32.51549], [-5.39798, 32.52476], [-5.40484, 32.5153], [-5.39385, 32.49862], [-5.39617, 32.48254], [-5.41042, 32.46567], [-5.46346, 32.45459], [-5.5359, 32.45399], [-5.52792, 32.43642], [-5.53633, 32.42051], [-5.52472, 32.39087], [-5.53394, 32.36191], [-5.47397, 32.3464], [-5.50767, 32.29449], [-5.4998, 32.2736], [-5.45549, 32.24329], [-5.44699, 32.21717], [-5.56317, 32.23993], [-5.58721, 32.22139], [-5.67795, 32.21382], [-5.74707, 32.14459], [-5.80267, 32.1275], [-5.84369, 32.13234], [-5.86415, 32.10769], [-5.88818, 31.98342], [-5.82587, 31.96374], [-5.80267, 31.9389], [-5.79858, 31.92805], [-5.82396, 31.89373], [-5.82538, 31.86837], [-5.81729, 31.85757], [-5.92062, 31.82112], [-5.96616, 31.75111], [-6.01771, 31.72021], [-6.12259, 31.69121], [-6.39646, 31.59114], [-6.42346, 31.5788], [-6.44973, 31.54763], [-6.48078, 31.55553], [-6.49513, 31.53582], [-6.56332, 31.50785], [-6.63293, 31.46149], [-6.70101, 31.46948], [-6.71296, 31.37572], [-6.71874, 31.35774], [-6.73305, 31.34882], [-6.8092, 31.34334], [-6.97258, 31.35118], [-6.99593, 31.3493], [-7.00899, 31.33899], [-7.03914, 31.39027], [-7.06077, 31.37034], [-7.12685, 31.36647], [-7.15566, 31.4283], [-7.17373, 31.41689], [-7.18452, 31.42896], [-7.17046, 31.46685], [-7.15708, 31.46752], [-7.14856, 31.48253], [-7.13963, 31.52913], [-7.13075, 31.53678], [-7.13414, 31.55772], [-7.19348, 31.55954], [-7.22215, 31.60846], [-7.26373, 31.62147], [-7.26974, 31.67334], [-7.31667, 31.67028], [-7.32114, 31.69344], [-7.3026, 31.69526], [-7.31856, 31.71301], [-7.28509, 31.73372], [-7.28204, 31.74739], [-7.26537, 31.73931], [-7.2656, 31.76148], [-7.22945, 31.76186], [-7.22932, 31.77304], [-7.1691, 31.74365], [-7.10323, 31.75985], [-7.04889, 31.76073], [-7.0243, 31.77436], [-7.0433, 31.78754], [-7.03481, 31.82761], [-7.00207, 31.82131], [-7.01279, 31.84676], [-7.02372, 31.84617], [-7.02051, 31.86069], [-7.02913, 31.85973], [-7.05539, 31.89348], [-7.05161, 31.90426], [-7.06792, 31.90752], [-7.06297, 31.94098], [-7.06906, 31.9654], [-7.05299, 31.97254], [-7.05754, 31.98257], [-7.11022, 32.02033], [-7.11742, 32.04595], [-7.11814, 32.08565], [-7.13095, 32.12911], [-7.10502, 32.21333], [-7.11618, 32.23195], [-7.10047, 32.3053], [-7.11689, 32.32563], [-7.12597, 32.31464], [-7.13304, 32.31927], [-7.10553, 32.35298], [-7.04068, 32.37365], [-6.99221, 32.49946], [-6.99469, 32.52023], [-7.01512, 32.55661], [-6.99629, 32.56049], [-6.98649, 32.63569], [-7.05592, 32.69871], [-7.04575, 32.73358], [-7.02241, 32.77042], [-7.03441, 32.77013], [-7.02892, 32.78859], [-6.99987, 32.8478], [-7.00605, 32.92232], [-6.99872, 32.93837], [-7.00826, 32.94743], [-7.00255, 32.95612], [-6.96881, 32.95262], [-6.94286, 32.99175], [-6.94442, 33.00891], [-6.92255, 33.04871], [-6.93219, 33.05697], [-6.9031, 33.07673], [-6.91379, 33.10164], [-6.89516, 33.10575], [-6.89254, 33.14149], [-6.86913, 33.20167], [-6.85027, 33.21915], [-6.80507, 33.23568], [-6.7798, 33.21515], [-6.66469, 33.21242], [-6.57148, 33.1816], [-6.575, 33.17699], [-6.55993, 33.17524], [-6.5412, 33.14883], [-6.53174, 33.14894], [-6.50969, 33.18734], [-6.47268, 33.19671], [-6.46082, 33.21804], [-6.40704, 33.22674], [-6.38381, 33.256], [-6.38147, 33.27488], [-6.41181, 33.32263], [-6.39186, 33.34743], [-6.4034, 33.36984], [-6.37775, 33.38947], [-6.37336, 33.40933], [-6.36052, 33.41844], [-6.36021, 33.48023], [-6.35277, 33.48261], [-6.27913, 33.45153], [-6.21363, 33.44714], [-6.1973, 33.43909], [-6.20614, 33.43045], [-6.21483, 33.36819], [-6.20807, 33.36641], [-6.21368, 33.35032], [-6.20315, 33.3425], [-6.17777, 33.34803], [-6.15654, 33.33672], [-6.12931, 33.34211], [-6.10294, 33.33665], [-6.09088, 33.31504], [-6.06996, 33.3057], [-5.99484, 33.30692], [-5.99209, 33.32199], [-5.97566, 33.3197], [-5.96332, 33.33203], [-5.94777, 33.3192], [-5.9355, 33.33208], [-5.92381, 33.31775], [-5.91114, 33.32917], [-5.9169, 33.31879], [-5.9107, 33.31397], [-5.82645, 33.30536], [-5.77417, 33.33408], [-5.79437, 33.33617], [-5.81706, 33.36101], [-5.80611, 33.39891], [-5.81622, 33.42698], [-5.78676, 33.4702], [-5.77378, 33.44092], [-5.74805, 33.4169], [-5.73696, 33.42152], [-5.67921, 33.39612], [-5.62517, 33.38989], [-5.61676, 33.38229], [-5.58068, 33.38727], [-5.57257, 33.36921], [-5.53881, 33.34945], [-5.54308, 33.34361], [-5.52474, 33.33917], [-5.5166, 33.31932], [-5.50639, 33.32495], [-5.50017, 33.30335], [-5.51244, 33.2564], [-5.4893, 33.23496], [-5.48601, 33.19403], [-5.44773, 33.16469], [-5.36742, 33.15298], [-5.29709, 33.1757], [-5.28198, 33.16866], [-5.28367, 33.12961], [-5.29888, 33.09753], [-5.3297, 33.08324], [-5.3193, 33.03501], [-5.29064, 33.02985], [-5.28814, 33.00388], [-5.30598, 32.98549], [-5.27326, 32.96661], [-5.24123, 32.92394], [-5.27429, 32.861], [-5.25455, 32.86937], [-5.24928, 32.85651]]]}}]}